NUSAT-49 (KLARA DAN VO*)
1 60500U 24149AJ  26068.79810190  .00012912  00000+0  43568-3 0  9991
2 60500  97.3807 150.7380 0001132 286.7761  73.3356 15.30828857 86935
STARLINK-34885          
1 65328U 25189F   26068.67273220  .00023571  00000+0  80554-3 0  9992
2 65328  53.1575 206.8608 0000966  93.0634 267.0477 15.30195960 31048
